NORAD_CAT_ID,OBJECT_NAME,OBJECT_TYPE,EPOCH,MEAN_MOTION,ECCENTRICITY,INCLINATION,RA_OF_ASC_NODE,ARG_OF_PERICENTER,MEAN_ANOMALY,BSTAR,MEAN_MOTION_DOT,MEAN_MOTION_DDOT,TLE_LINE0,TLE_LINE1,TLE_LINE2,SEMIMAJOR_AXIS,PERIOD,APOGEE,PERIGEE,DECAYED
53714.0,STARLINK-4688,PAYLOAD,2024-05-26 12:44:00,15.08835824,0.000102,53.2169,276.5512,86.0936,274.0173,7.937e-05,9.75e-06,0.0,0 STARLINK-4688,1 53714U 22107Q   24147.53056364  .00000975  00000-0  79370-4 0  9993,2 53714  53.2169 276.5512 0001020  86.0936 274.0173 15.08835824 95867,6917.893,95.438,540.464,539.053,0.0
53714.0,STARLINK-4688,PAYLOAD,2024-05-26 14:19:23,15.08838684,9.42e-05,53.2173,276.2537,82.1557,277.9542,0.0001009,1.318e-05,0.0,0 STARLINK-4688,1 53714U 22107Q   24147.59680146  .00001318  00000-0  10090-3 0  9995,2 53714  53.2173 276.2537 0000942  82.1557 277.9542 15.08838684 96314,6917.884,95.438,540.401,539.098,0.0
53714.0,STARLINK-4688,PAYLOAD,2024-05-26 15:54:46,15.08838471,9.8e-05,53.2178,275.9575,80.2592,279.8511,0.0001018,1.333e-05,0.0,0 STARLINK-4688,1 53714U 22107Q   24147.66304206  .00001333  00000-0  10180-3 0  9990,2 53714  53.2178 275.9575 0000980  80.2592 279.8511 15.08838471 96329,6917.885,95.438,540.428,539.072,0.0
53714.0,STARLINK-4688,PAYLOAD,2024-05-27 01:27:05,15.08844327,9.73e-05,53.2176,274.173,82.2747,277.8356,7.1046e-05,8.43e-06,0.0,0 STARLINK-4688,1 53714U 22107Q   24148.06047832  .00000843  00000-0  71046-4 0  9998,2 53714  53.2176 274.1730 0000973  82.2747 277.8356 15.08844327 95946,6917.867,95.437,540.405,539.059,0.0
53714.0,STARLINK-4688,PAYLOAD,2024-05-27 12:34:47,15.08834317,0.0001019,53.2181,272.0915,76.4184,283.6922,0.00016974,2.414e-05,0.0,0 STARLINK-4688,1 53714U 22107Q   24148.52416447  .00002414  00000-0  16974-3 0  9995,2 53714  53.2181 272.0915 0001019  76.4184 283.6922 15.08834317 96017,6917.898,95.438,540.468,539.058,0.0
53714.0,STARLINK-4688,PAYLOAD,2024-05-27 14:10:10,15.0883505,0.0001029,53.218,271.7941,76.6273,283.4834,0.00017827,2.55e-05,0.0,0 STARLINK-4688,1 53714U 22107Q   24148.59040447  .00002550  00000-0  17827-3 0  9994,2 53714  53.2180 271.7941 0001029  76.6273 283.4834 15.08835050 96467,6917.896,95.438,540.472,539.049,0.0
53714.0,STARLINK-4688,PAYLOAD,2024-05-27 17:20:57,15.08837684,0.0001037,53.2179,271.1993,76.2186,283.8921,0.00020674,3.004e-05,0.0,0 STARLINK-4688,1 53714U 22107Q   24148.72288362  .00003004  00000-0  20674-3 0  9998,2 53714  53.2179 271.1993 0001037  76.2186 283.8921 15.08837684 96482,6917.887,95.438,540.47,539.035,0.0
53714.0,STARLINK-4688,PAYLOAD,2024-05-28 14:00:58,15.08839661,0.0001119,53.2178,267.3339,71.6432,288.4682,9.0707e-05,1.156e-05,0.0,0 STARLINK-4688,1 53714U 22107Q   24149.58400604  .00001156  00000-0  90707-4 0  9999,2 53714  53.2178 267.3339 0001119  71.6432 288.4682 15.08839661 96613,6917.881,95.438,540.521,538.972,0.0
53714.0,STARLINK-4688,PAYLOAD,2024-05-28 15:36:21,15.08840765,0.0001119,53.218,267.0368,70.9986,289.1127,9.5601e-05,1.234e-05,0.0,0 STARLINK-4688,1 53714U 22107Q   24149.65024504  .00001234  00000-0  95601-4 0  9993,2 53714  53.2180 267.0368 0001119  70.9986 289.1127 15.08840765 96182,6917.878,95.438,540.517,538.969,0.0
53714.0,STARLINK-4688,PAYLOAD,2024-05-29 13:51:44,15.08843401,0.0001238,53.2182,262.8741,67.0517,293.0606,7.256e-05,8.67e-06,0.0,0 STARLINK-4688,1 53714U 22107Q   24150.57760310  .00000867  00000-0  72560-4 0  9998,2 53714  53.2182 262.8741 0001238  67.0517 293.0606 15.08843401 96761,6917.87,95.437,540.591,538.879,0.0
53714.0,STARLINK-4688,PAYLOAD,2024-05-30 12:07:08,15.08842428,0.0001122,53.2182,258.7106,73.4116,286.6999,7.6892e-05,9.36e-06,0.0,0 STARLINK-4688,1 53714U 22107Q   24151.50496288  .00000936  00000-0  76892-4 0  9991,2 53714  53.2182 258.7106 0001122  73.4116 286.6999 15.08842428 96466,6917.873,95.437,540.514,538.962,0.0
53714.0,STARLINK-4688,PAYLOAD,2024-05-31 13:33:18,15.08847954,0.0001185,53.2184,253.9524,89.4455,270.6673,9.7435e-05,1.263e-05,0.0,0 STARLINK-4688,1 53714U 22107Q   24152.56479616  .00001263  00000-0  97435-4 0  9994,2 53714  53.2184 253.9524 0001185  89.4455 270.6673 15.08847954 96620,6917.856,95.437,540.541,538.901,0.0
53714.0,STARLINK-4688,PAYLOAD,2024-06-01 13:24:06,15.08829484,0.0001295,53.2183,249.4925,89.5814,270.5327,8.9907e-06,-1.45e-06,0.0,0 STARLINK-4688,1 53714U 22107Q   24153.55840926 -.00000145  00000-0  89907-5 0  9995,2 53714  53.2183 249.4925 0001295  89.5814 270.5327 15.08829484 96775,6917.913,95.438,540.673,538.882,0.0
53714.0,STARLINK-4688,PAYLOAD,2024-06-01 22:56:24,15.08838721,0.0001267,53.2182,247.7077,87.8923,272.2215,4.0876e-05,3.63e-06,0.0,0 STARLINK-4688,1 53714U 22107Q   24153.95584368  .00000363  00000-0  40876-4 0  9996,2 53714  53.2182 247.7077 0001267  87.8923 272.2215 15.08838721 96830,6917.884,95.438,540.626,538.873,0.0
53714.0,STARLINK-4688,PAYLOAD,2024-06-02 13:14:53,15.08833953,0.0001379,53.2193,245.035,95.6618,264.4531,6.0068e-07,-2.78e-06,0.0,0 STARLINK-4688,1 53714U 22107Q   24154.55201076 -.00000278  00000-0  60068-6 0  9998,2 53714  53.2193 245.0350 0001379  95.6618 264.4531 15.08833953 96925,6917.899,95.438,540.718,538.81,0.0
53714.0,STARLINK-4688,PAYLOAD,2024-06-02 22:47:12,15.08841521,0.0001398,53.2191,243.25,93.8225,266.2927,2.996e-05,1.89e-06,0.0,0 STARLINK-4688,1 53714U 22107Q   24154.94944597  .00000189  00000-0  29960-4 0  9997,2 53714  53.2191 243.2500 0001398  93.8225 266.2927 15.08841521 96980,6917.876,95.437,540.708,538.774,0.0
53714.0,STARLINK-4688,PAYLOAD,2024-06-03 11:30:17,15.08834062,0.000152,53.2187,240.8704,97.1329,262.9836,0.0001687,2.397e-05,0.0,0 STARLINK-4688,1 53714U 22107Q   24155.47937067  .00002397  00000-0  16870-3 0  9998,2 53714  53.2187 240.8704 0001520  97.1329 262.9836 15.08834062 97506,6917.899,95.438,540.815,538.712,0.0
53714.0,STARLINK-4688,PAYLOAD,2024-06-03 14:41:03,15.08835073,0.0001474,53.2189,240.2759,94.5266,265.5894,0.00018443,2.648e-05,0.0,0 STARLINK-4688,1 53714U 22107Q   24155.61185073  .00002648  00000-0  18443-3 0  9993,2 53714  53.2189 240.2759 0001474  94.5266 265.5894 15.08835073 97080,6917.895,95.438,540.78,538.741,0.0
53714.0,STARLINK-4688,PAYLOAD,2024-06-04 11:21:04,15.08841017,0.0001541,53.2183,236.4074,94.5771,265.5397,0.0001448,2.017e-05,0.0,0 STARLINK-4688,1 53714U 22107Q   24156.47296998  .00002017  00000-0  14480-3 0  9994,2 53714  53.2183 236.4074 0001541  94.5771 265.5397 15.08841017 97653,6917.877,95.437,540.808,538.676,0.0
53714.0,STARLINK-4688,PAYLOAD,2024-06-04 22:28:46,15.08836145,0.0001587,53.2185,234.3269,91.7087,268.4087,0.00025359,3.75e-05,0.0,0 STARLINK-4688,1 53714U 22107Q   24156.93665211  .00003750  00000-0  25359-3 0  9995,2 53714  53.2185 234.3269 0001587  91.7087 268.4087 15.08836145 97729,6917.892,95.438,540.855,538.659,0.0
53714.0,STARLINK-4688,PAYLOAD,2024-06-05 04:50:19,15.08840512,0.0001549,53.2164,233.1386,88.5874,271.5296,0.00010865,1.442e-05,0.0,0 STARLINK-4688,1 53714U 22107Q   24157.20161092  .00001442  00000-0  10865-3 0  9996,2 53714  53.2164 233.1386 0001549  88.5874 271.5296 15.08840512 97325,6917.879,95.438,540.815,538.672,0.0
53714.0,STARLINK-4688,PAYLOAD,2024-06-05 14:22:37,15.08847139,0.0001392,53.2168,231.3518,96.2307,263.8844,-8.471e-05,-1.636e-05,0.0,0 STARLINK-4688,1 53714U 22107Q   24157.59905053 -.00001636  00000-0 -84710-4 0  9999,2 53714  53.2168 231.3518 0001392  96.2307 263.8844 15.08847139 97829,6917.859,95.437,540.687,538.761,0.0
53714.0,STARLINK-4688,PAYLOAD,2024-06-05 22:19:33,15.088429,0.0001427,53.2172,229.8652,103.0611,257.0541,7.3797e-05,8.87e-06,0.0,0 STARLINK-4688,1 53714U 22107Q   24157.93024915  .00000887  00000-0  73797-4 0  9994,2 53714  53.2172 229.8652 0001427 103.0611 257.0541 15.08842900 97874,6917.872,95.437,540.724,538.749,0.0
53714.0,STARLINK-4688,PAYLOAD,2024-06-06 11:02:38,15.08846007,0.0001497,53.217,227.4863,97.7245,262.3917,0.00010505,1.385e-05,0.0,0 STARLINK-4688,1 53714U 22107Q   24158.46016550  .00001385  00000-0  10505-3 0  9990,2 53714  53.2170 227.4863 0001497  97.7245 262.3917 15.08846007 97518,6917.862,95.437,540.763,538.691,0.0
53714.0,STARLINK-4688,PAYLOAD,2024-06-07 09:18:02,15.08836943,0.0001405,53.2169,223.3232,96.7756,263.3396,0.00010036,1.31e-05,0.0,0 STARLINK-4688,1 53714U 22107Q   24159.38753079  .00001310  00000-0  10036-3 0  9993,2 53714  53.2169 223.3232 0001405  96.7756 263.3396 15.08836943 97651,6917.89,95.438,540.727,538.783,0.0
53714.0,STARLINK-4688,PAYLOAD,2024-06-08 10:44:12,15.08853694,0.0001771,53.217,218.5665,89.3314,270.7881,-3.8984e-05,-9.09e-06,0.0,0 STARLINK-4688,1 53714U 22107Q   24160.44736287 -.00000909  00000-0 -38984-4 0  9992,2 53714  53.2170 218.5665 0001771  89.3314 270.7881 15.08853694 98253,6917.839,95.437,540.929,538.478,0.0
53714.0,STARLINK-4688,PAYLOAD,2024-06-08 20:16:30,15.08849817,0.0001353,53.2173,216.7827,92.4423,267.6724,9.1694e-05,1.172e-05,0.0,0 STARLINK-4688,1 53714U 22107Q   24160.84479992  .00001172  00000-0  91694-4 0  9991,2 53714  53.2173 216.7827 0001353  92.4423 267.6724 15.08849817 97878,6917.85,95.437,540.651,538.779,0.0
53714.0,STARLINK-4688,PAYLOAD,2024-06-09 10:35:00,15.08826321,0.000132,53.217,214.1072,96.7362,263.378,8.6256e-06,-1.51e-06,0.0,0 STARLINK-4688,1 53714U 22107Q   24161.44098054 -.00000151  00000-0  86256-5 0  9990,2 53714  53.2170 214.1072 0001320  96.7362 263.3780 15.08826321 97962,6917.922,95.438,540.7,538.874,0.0
53714.0,STARLINK-4688,PAYLOAD,2024-06-10 04:04:15,15.08834063,0.0001322,53.2172,210.8358,94.5712,265.5431,1.0509e-05,-1.21e-06,0.0,0 STARLINK-4688,1 53714U 22107Q   24162.16962019 -.00000121  00000-0  10509-4 0  9995,2 53714  53.2172 210.8358 0001322  94.5712 265.5431 15.08834063 98073,6917.899,95.438,540.678,538.849,0.0
53714.0,STARLINK-4688,PAYLOAD,2024-06-10 10:25:47,15.08836644,0.0001329,53.2172,209.6467,96.8131,263.3012,4.5606e-05,4.38e-06,0.0,0 STARLINK-4688,1 53714U 22107Q   24162.43457903  .00000438  00000-0  45606-4 0  9992,2 53714  53.2172 209.6467 0001329  96.8131 263.3012 15.08836644 98558,6917.891,95.438,540.675,538.836,0.0
